[
  {
    "COMMENT": "GENERATED VIA SPACETRACK.ORG API",
    "ORIGINATOR": "18 SPCS",
    "NORAD_CAT_ID": "20436",
    "OBJECT_NAME": "SPOT 2",
    "OBJECT_TYPE": "PAYLOAD",
    "CLASSIFICATION_TYPE": "U",
    "INTLDES": "90005A",
    "EPOCH": "2023-06-29 04:36:02",
    "EPOCH_MICROSECONDS": "680416",
    "MEAN_MOTION": "14.68136431",
    "ECCENTRICITY": "0.0140228",
    "INCLINATION": "98.6626",
    "RA_OF_ASC_NODE": "252.195",
    "ARG_OF_PERICENTER": "246.0818",
    "MEAN_ANOMALY": "112.5643",
    "EPHEMERIS_TYPE": "0",
    "ELEMENT_SET_NO": "999",
    "REV_AT_EPOCH": "75595",
    "BSTAR": "0.00017697",
    "MEAN_MOTION_DOT": "0.00001114",
    "MEAN_MOTION_DDOT": "0",
    "FILE": "3945521",
    "TLE_LINE0": "0 SPOT 2",
    "TLE_LINE1": "1 20436U 90005A   23180.19169769  .00001114  00000-0  17697-3 0  9991",
    "TLE_LINE2": "2 20436  98.6626 252.1950 0140228 246.0818 112.5643 14.68136431755954",
    "OBJECT_ID": "1990-005A",
    "OBJECT_NUMBER": "20436",
    "SEMIMAJOR_AXIS": "7045.161",
    "PERIOD": "98.084",
    "APOGEE": "765.818",
    "PERIGEE": "568.233",
    "DECAYED": "0"
  },
  {
    "COMMENT": "GENERATED VIA SPACETRACK.ORG API",
    "ORIGINATOR": "18 SPCS",
    "NORAD_CAT_ID": "20436",
    "OBJECT_NAME": "SPOT 2",
    "OBJECT_TYPE": "PAYLOAD",
    "CLASSIFICATION_TYPE": "U",
    "INTLDES": "90005A",
    "EPOCH": "2023-07-01 05:40:18",
    "EPOCH_MICROSECONDS": "262272",
    "MEAN_MOTION": "14.68140791",
    "ECCENTRICITY": "0.014029",
    "INCLINATION": "98.6627",
    "RA_OF_ASC_NODE": "254.3596",
    "ARG_OF_PERICENTER": "239.6542",
    "MEAN_ANOMALY": "119.0726",
    "EPHEMERIS_TYPE": "0",
    "ELEMENT_SET_NO": "999",
    "REV_AT_EPOCH": "75625",
    "BSTAR": "0.00015483",
    "MEAN_MOTION_DOT": "0.00000967",
    "MEAN_MOTION_DDOT": "0",
    "FILE": "3946864",
    "TLE_LINE0": "0 SPOT 2",
    "TLE_LINE1": "1 20436U 90005A   23182.23632248  .00000967  00000-0  15483-3 0  9991",
    "TLE_LINE2": "2 20436  98.6627 254.3596 0140290 239.6542 119.0726 14.68140791756258",
    "OBJECT_ID": "1990-005A",
    "OBJECT_NUMBER": "20436",
    "SEMIMAJOR_AXIS": "7045.147",
    "PERIOD": "98.083",
    "APOGEE": "765.848",
    "PERIGEE": "568.175",
    "DECAYED": "0"
  },
  {
    "COMMENT": "GENERATED VIA SPACETRACK.ORG API",
    "ORIGINATOR": "18 SPCS",
    "NORAD_CAT_ID": "20436",
    "OBJECT_NAME": "SPOT 2",
    "OBJECT_TYPE": "PAYLOAD",
    "CLASSIFICATION_TYPE": "U",
    "INTLDES": "90005A",
    "EPOCH": "2023-07-02 11:06:51",
    "EPOCH_MICROSECONDS": "517728",
    "MEAN_MOTION": "14.68143509",
    "ECCENTRICITY": "0.0140338",
    "INCLINATION": "98.6627",
    "RA_OF_ASC_NODE": "255.6583",
    "ARG_OF_PERICENTER": "235.8",
    "MEAN_ANOMALY": "122.9837",
    "EPHEMERIS_TYPE": "0",
    "ELEMENT_SET_NO": "999",
    "REV_AT_EPOCH": "75643",
    "BSTAR": "0.00015422",
    "MEAN_MOTION_DOT": "0.00000963",
    "MEAN_MOTION_DDOT": "0",
    "FILE": "3947696",
    "TLE_LINE0": "0 SPOT 2",
    "TLE_LINE1": "1 20436U 90005A   23183.46309627  .00000963  00000-0  15422-3 0  9998",
    "TLE_LINE2": "2 20436  98.6627 255.6583 0140338 235.8000 122.9837 14.68143509756434",
    "OBJECT_ID": "1990-005A",
    "OBJECT_NUMBER": "20436",
    "SEMIMAJOR_AXIS": "7045.138",
    "PERIOD": "98.083",
    "APOGEE": "765.873",
    "PERIGEE": "568.133",
    "DECAYED": "0"
  },
  {
    "COMMENT": "GENERATED VIA SPACETRACK.ORG API",
    "ORIGINATOR": "18 SPCS",
    "NORAD_CAT_ID": "20436",
    "OBJECT_NAME": "SPOT 2",
    "OBJECT_TYPE": "PAYLOAD",
    "CLASSIFICATION_TYPE": "U",
    "INTLDES": "90005A",
    "EPOCH": "2023-07-03 11:38:59",
    "EPOCH_MICROSECONDS": "147520",
    "MEAN_MOTION": "14.68145887",
    "ECCENTRICITY": "0.0140369",
    "INCLINATION": "98.6627",
    "RA_OF_ASC_NODE": "256.7406",
    "ARG_OF_PERICENTER": "232.5881",
    "MEAN_ANOMALY": "126.2478",
    "EPHEMERIS_TYPE": "0",
    "ELEMENT_SET_NO": "999",
    "REV_AT_EPOCH": "75658",
    "BSTAR": "0.00015671",
    "MEAN_MOTION_DOT": "0.0000098",
    "MEAN_MOTION_DDOT": "0",
    "FILE": "3948514",
    "TLE_LINE0": "0 SPOT 2",
    "TLE_LINE1": "1 20436U 90005A   23184.48540680  .00000980  00000-0  15671-3 0  9992",
    "TLE_LINE2": "2 20436  98.6627 256.7406 0140369 232.5881 126.2478 14.68145887756580",
    "OBJECT_ID": "1990-005A",
    "OBJECT_NUMBER": "20436",
    "SEMIMAJOR_AXIS": "7045.130",
    "PERIOD": "98.083",
    "APOGEE": "765.887",
    "PERIGEE": "568.104",
    "DECAYED": "0"
  },
  {
    "COMMENT": "GENERATED VIA SPACETRACK.ORG API",
    "ORIGINATOR": "18 SPCS",
    "NORAD_CAT_ID": "20436",
    "OBJECT_NAME": "SPOT 2",
    "OBJECT_TYPE": "PAYLOAD",
    "CLASSIFICATION_TYPE": "U",
    "INTLDES": "90005A",
    "EPOCH": "2023-07-04 15:27:23",
    "EPOCH_MICROSECONDS": "723712",
    "MEAN_MOTION": "14.68148873",
    "ECCENTRICITY": "0.0140436",
    "INCLINATION": "98.6627",
    "RA_OF_ASC_NODE": "257.9672",
    "ARG_OF_PERICENTER": "228.9543",
    "MEAN_ANOMALY": "129.9455",
    "EPHEMERIS_TYPE": "0",
    "ELEMENT_SET_NO": "999",
    "REV_AT_EPOCH": "75675",
    "BSTAR": "0.000171",
    "MEAN_MOTION_DOT": "0.00001076",
    "MEAN_MOTION_DDOT": "0",
    "FILE": "3949636",
    "TLE_LINE0": "0 SPOT 2",
    "TLE_LINE1": "1 20436U 90005A   23185.64402458  .00001076  00000-0  17100-3 0  9997",
    "TLE_LINE2": "2 20436  98.6627 257.9672 0140436 228.9543 129.9455 14.68148873756759",
    "OBJECT_ID": "1990-005A",
    "OBJECT_NUMBER": "20436",
    "SEMIMAJOR_AXIS": "7045.121",
    "PERIOD": "98.083",
    "APOGEE": "765.925",
    "PERIGEE": "568.047",
    "DECAYED": "0"
  },
  {
    "COMMENT": "GENERATED VIA SPACETRACK.ORG API",
    "ORIGINATOR": "18 SPCS",
    "NORAD_CAT_ID": "20436",
    "OBJECT_NAME": "SPOT 2",
    "OBJECT_TYPE": "PAYLOAD",
    "CLASSIFICATION_TYPE": "U",
    "INTLDES": "90005A",
    "EPOCH": "2023-07-06 05:04:39",
    "EPOCH_MICROSECONDS": "232416",
    "MEAN_MOTION": "14.68152367",
    "ECCENTRICITY": "0.0140499",
    "INCLINATION": "98.6626",
    "RA_OF_ASC_NODE": "259.6266",
    "ARG_OF_PERICENTER": "224.0375",
    "MEAN_ANOMALY": "134.9569",
    "EPHEMERIS_TYPE": "0",
    "ELEMENT_SET_NO": "999",
    "REV_AT_EPOCH": "75698",
    "BSTAR": "0.00017861",
    "MEAN_MOTION_DOT": "0.00001127",
    "MEAN_MOTION_DDOT": "0",
    "FILE": "3950789",
    "TLE_LINE0": "0 SPOT 2",
    "TLE_LINE1": "1 20436U 90005A   23187.21156519  .00001127  00000-0  17861-3 0  9997",
    "TLE_LINE2": "2 20436  98.6626 259.6266 0140499 224.0375 134.9569 14.68152367756985",
    "OBJECT_ID": "1990-005A",
    "OBJECT_NUMBER": "20436",
    "SEMIMAJOR_AXIS": "7045.110",
    "PERIOD": "98.082",
    "APOGEE": "765.958",
    "PERIGEE": "567.992",
    "DECAYED": "0"
  },
  {
    "COMMENT": "GENERATED VIA SPACETRACK.ORG API",
    "ORIGINATOR": "18 SPCS",
    "NORAD_CAT_ID": "20436",
    "OBJECT_NAME": "SPOT 2",
    "OBJECT_TYPE": "PAYLOAD",
    "CLASSIFICATION_TYPE": "U",
    "INTLDES": "90005A",
    "EPOCH": "2023-07-07 18:41:54",
    "EPOCH_MICROSECONDS": "473280",
    "MEAN_MOTION": "14.68157042",
    "ECCENTRICITY": "0.0140567",
    "INCLINATION": "98.6625",
    "RA_OF_ASC_NODE": "261.286",
    "ARG_OF_PERICENTER": "219.1222",
    "MEAN_ANOMALY": "139.9752",
    "EPHEMERIS_TYPE": "0",
    "ELEMENT_SET_NO": "999",
    "REV_AT_EPOCH": "75721",
    "BSTAR": "0.0002102",
    "MEAN_MOTION_DOT": "0.00001339",
    "MEAN_MOTION_DDOT": "0",
    "FILE": "3952226",
    "TLE_LINE0": "0 SPOT 2",
    "TLE_LINE1": "1 20436U 90005A   23188.77910270  .00001339  00000-0  21020-3 0  9998",
    "TLE_LINE2": "2 20436  98.6625 261.2860 0140567 219.1222 139.9752 14.68157042757216",
    "OBJECT_ID": "1990-005A",
    "OBJECT_NUMBER": "20436",
    "SEMIMAJOR_AXIS": "7045.095",
    "PERIOD": "98.082",
    "APOGEE": "765.990",
    "PERIGEE": "567.929",
    "DECAYED": "0"
  },
  {
    "COMMENT": "GENERATED VIA SPACETRACK.ORG API",
    "ORIGINATOR": "18 SPCS",
    "NORAD_CAT_ID": "20436",
    "OBJECT_NAME": "SPOT 2",
    "OBJECT_TYPE": "PAYLOAD",
    "CLASSIFICATION_TYPE": "U",
    "INTLDES": "90005A",
    "EPOCH": "2023-07-08 19:14:01",
    "EPOCH_MICROSECONDS": "722048",
    "MEAN_MOTION": "14.68159202",
    "ECCENTRICITY": "0.0140611",
    "INCLINATION": "98.6624",
    "RA_OF_ASC_NODE": "262.3682",
    "ARG_OF_PERICENTER": "215.9164",
    "MEAN_ANOMALY": "143.2526",
    "EPHEMERIS_TYPE": "0",
    "ELEMENT_SET_NO": "999",
    "REV_AT_EPOCH": "75736",
    "BSTAR": "0.00020568",
    "MEAN_MOTION_DOT": "0.00001309",
    "MEAN_MOTION_DDOT": "0",
    "FILE": "3953149",
    "TLE_LINE0": "0 SPOT 2",
    "TLE_LINE1": "1 20436U 90005A   23189.80140882  .00001309  00000-0  20568-3 0  9990",
    "TLE_LINE2": "2 20436  98.6624 262.3682 0140611 215.9164 143.2526 14.68159202757361",
    "OBJECT_ID": "1990-005A",
    "OBJECT_NUMBER": "20436",
    "SEMIMAJOR_AXIS": "7045.088",
    "PERIOD": "98.082",
    "APOGEE": "766.014",
    "PERIGEE": "567.891",
    "DECAYED": "0"
  },
  {
    "COMMENT": "GENERATED VIA SPACETRACK.ORG API",
    "ORIGINATOR": "18 SPCS",
    "NORAD_CAT_ID": "20436",
    "OBJECT_NAME": "SPOT 2",
    "OBJECT_TYPE": "PAYLOAD",
    "CLASSIFICATION_TYPE": "U",
    "INTLDES": "90005A",
    "EPOCH": "2023-07-09 19:46:08",
    "EPOCH_MICROSECONDS": "854176",
    "MEAN_MOTION": "14.68160982",
    "ECCENTRICITY": "0.014067",
    "INCLINATION": "98.6623",
    "RA_OF_ASC_NODE": "263.4505",
    "ARG_OF_PERICENTER": "212.7126",
    "MEAN_ANOMALY": "146.5309",
    "EPHEMERIS_TYPE": "0",
    "ELEMENT_SET_NO": "999",
    "REV_AT_EPOCH": "75751",
    "BSTAR": "0.00018711",
    "MEAN_MOTION_DOT": "0.00001185",
    "MEAN_MOTION_DDOT": "0",
    "FILE": "3953934",
    "TLE_LINE0": "0 SPOT 2",
    "TLE_LINE1": "1 20436U 90005A   23190.82371359  .00001185  00000-0  18711-3 0  9998",
    "TLE_LINE2": "2 20436  98.6623 263.4505 0140670 212.7126 146.5309 14.68160982757513",
    "OBJECT_ID": "1990-005A",
    "OBJECT_NUMBER": "20436",
    "SEMIMAJOR_AXIS": "7045.082",
    "PERIOD": "98.082",
    "APOGEE": "766.050",
    "PERIGEE": "567.844",
    "DECAYED": "0"
  }
]